STARLINK-5155           
1 54170U 22141P   22316.58334491  .00003845  00000+0  31782-4 0  9992
2 54170  53.2188  67.0040 0002269  33.7035 193.7859 15.73218686  1306
STARLINK-5229           
1 54171U 22141Q   22316.58334491  .00046897  00000+0  33665-3 0  9998
2 54171  53.2182  67.0115 0001918  30.6934 192.5869 15.73202637  1305
STARLINK-5117           
1 54172U 22141R   22316.58334491 -.00073608  00000+0 -52267-3 0  9990
2 54172  53.2172  66.9992 0002285  24.5203 204.1305 15.73283553  1306
STARLINK-5242           
1 54173U 22141S   22316.58334491  .00006243  00000+0  48813-4 0  9993
2 54173  53.2174  67.0051 0002095  32.4881 193.7712 15.73229411  1304
STARLINK-5248           
1 54174U 22141T   22316.58334491 -.00755946  00000+0 -44470-2 0  9990
2 54174  53.2173  66.3058 0001343  54.4509 154.4910 15.79495877  1300
STARLINK-5256           
1 54175U 22141U   22316.58334491 -.00014088  00000+0 -95921-4 0  9995
2 54175  53.2177  67.0015 0002184  22.6784 205.3482 15.73244467  1303
STARLINK-5154           
1 54176U 22141V   22316.58334491  .00000652  00000+0  90552-5 0  9992
2 54176  53.2168  66.9941 0002231  24.0134 206.9989 15.73247257  1307
STARLINK-5186           
1 54177U 22141W   22316.58334491 -.00057277  00000+0 -40549-3 0  9999
2 54177  53.2182  66.9999 0002139  27.2300 202.0119 15.73252762  1303
STARLINK-5164           
1 54178U 22141X   22316.58334491  .00008857  00000+0  67340-4 0  9997
2 54178  53.2168  66.9927 0002125  25.7487 205.8677 15.73241889  1301
STARLINK-5122           
1 54179U 22141Y   22316.58334491 -.00080729  00000+0 -57413-3 0  9997
2 54179  53.2174  66.9978 0001932  35.0054 194.8266 15.73285948  1309
STARLINK-5228           
1 54180U 22141Z   22316.58334491  .00042513  00000+0  30582-3 0  9994
2 54180  53.2168  66.9865 0002096  33.9028 200.7057 15.73196973  1303
STARLINK-5227           
1 54181U 22141AA  22316.58334491 -.00032003  00000+0 -22390-3 0  9998
2 54181  53.2171  66.9922 0002278  26.4326 205.7748 15.73254858  1301
STARLINK-5231           
1 54182U 22141AB  22316.58334491 -.00053495  00000+0 -37816-3 0  9996
2 54182  53.2158  66.9810 0002125  25.2387 211.7351 15.73258470  1309
STARLINK-5239           
1 54183U 22141AC  22316.58334491 -.00012840  00000+0 -87028-4 0  9997
2 54183  53.2178  66.9896 0002024  22.4290 211.6002 15.73242797  1303
STARLINK-5162           
1 54184U 22141AD  22316.58334491 -.00015668  00000+0 -10720-3 0  9993
2 54184  53.2156  66.9836 0002061  23.3844 211.8484 15.73244113  1300
STARLINK-5235           
1 54185U 22141AE  22316.58334491 -.00056870  00000+0 -40237-3 0  9990
2 54185  53.2191  66.9920 0002147  26.6569 206.7438 15.73263347  1301
STARLINK-5194           
1 54186U 22141AF  22316.58334491  .00042716  00000+0  30687-3 0  9991
2 54186  53.2161  66.9783 0002206  34.9691 203.2137 15.73226073  1303
STARLINK-5240           
1 54187U 22141AG  22316.58334491 -.00052975  00000+0 -37439-3 0  9994
2 54187  53.2176  66.9913 0001850  26.7869 206.0232 15.73261214  1308
STARLINK-5238           
1 54188U 22141AH  22316.58334491 -.00079205  00000+0 -56284-3 0  9999
2 54188  53.2145  66.9775 0002135  28.8424 208.7226 15.73296030  1304
STARLINK-5182           
1 54189U 22141AJ  22316.58334491  .00044439  00000+0  31917-3 0  9995
2 54189  53.2172  66.9849 0002298  23.1161 212.6957 15.73213684  1302
STARLINK-5281           
1 54190U 22141AK  22316.58334491 -.00048973  00000+0 -34621-3 0  9991
2 54190  53.2163  66.9777 0001775  22.9016 215.8958 15.73221011  1308
STARLINK-4619           
1 54191U 22141AL  22316.58334491  .00010918  00000+0  81994-4 0  9994
2 54191  53.2165  66.9824 0002198  24.5864 211.7904 15.73233263  1301
STARLINK-5268           
1 54192U 22141AM  22316.58334491 -.00070508  00000+0 -50075-3 0  9993
2 54192  53.2171  66.9676 0002171  22.8291 221.3084 15.73262575  1304
STARLINK-5263           
1 54193U 22141AN  22316.58334491 -.00097375  00000+0 -69627-3 0  9998
2 54193  53.2164  66.9756 0002014  20.7372 219.2718 15.73236435  1305
STARLINK-5271           
1 54194U 22141AP  22316.58334491 -.00024970  00000+0 -17384-3 0  9993
2 54194  53.2171  66.9731 0002089  26.4737 214.7849 15.73220852  1308
STARLINK-5258           
1 54195U 22141AQ  22316.58334491 -.00051410  00000+0 -36404-3 0  9997
2 54195  53.2172  66.9773 0001842  20.0448 219.4044 15.73203330  1302
STARLINK-5237           
1 54196U 22141AR  22316.58334491  .00041166  00000+0  29623-3 0  9998
2 54196  53.2168  66.9707 0001968  33.0126 209.3495 15.73204103  1308
STARLINK-5234           
1 54197U 22141AS  22316.58334491  .00007306  00000+0  56350-4 0  9995
2 54197  53.2177  66.9754 0002027  31.4367 209.1134 15.73236206  1304
STARLINK-5246           
1 54198U 22141AT  22316.58334491  .00004484  00000+0  36293-4 0  9994
2 54198  53.2169  66.9692 0001934  35.1620 207.7987 15.73243226  1306
STARLINK-5244           
1 54199U 22141AU  22316.58334491  .00044755  00000+0  32134-3 0  9999
2 54199  53.2173  66.9722 0002384  30.5976 211.1768 15.73217626  1300
STARLINK-5250           
1 54200U 22141AV  22316.58334491 -.00056263  00000+0 -39792-3 0  9998
2 54200  53.2142  66.9621 0001907  31.4881 213.2605 15.73268784  1306
STARLINK-5199           
1 54201U 22141AW  22316.58334491  .00006491  00000+0  50585-4 0  9999
2 54201  53.2164  66.9646 0002093  29.4087 215.9372 15.73222339  1306
STARLINK-5205           
1 54202U 22141AX  22316.58334491 -.00084555  00000+0 -60211-3 0  9995
2 54202  53.2158  66.9621 0001864  33.5816 212.3249 15.73275106  1308
STARLINK-5247           
1 54203U 22141AY  22316.58334491  .00023903  00000+0  17401-3 0  9997
2 54203  53.2159  66.9670 0001893  30.8206 212.7379 15.73230965  1301
STARLINK-5241           
1 54204U 22141AZ  22316.58334491 -.00069170  00000+0 -49084-3 0  9998
2 54204  53.2163  66.9585 0002015  33.0242 214.7093 15.73275045  1307
STARLINK-5249           
1 54205U 22141BA  22316.58334491  .00025246  00000+0  18380-3 0  9998
2 54205  53.2161  66.9611 0002022  34.2672 212.3371 15.73193928  1306
STARLINK-5264           
1 54206U 22141BB  22316.58334491 -.00853511  00000+0 -61622-2 0  9991
2 54206  53.2174  66.5360 0001646  37.6401  54.5411 15.75192607  1302
STARLINK-5262           
1 54207U 22141BC  22316.58334491 -.00060269  00000+0 -42720-3 0  9991
2 54207  53.2164  66.9606 0001801  28.5391 218.6175 15.73246188  1301
STARLINK-5255           
1 54208U 22141BD  22316.58334491  .00042586  00000+0  30631-3 0  9990
2 54208  53.2159  66.9570 0002207  35.7849 212.5533 15.73198596  1305
STARLINK-5259           
1 54209U 22141BE  22316.58334491  .00006200  00000+0  48491-4 0  9998
2 54209  53.2157  66.9557 0002203  20.9173 228.0135 15.73235577  1302
FALCON 9 DEB            
1 54213U 22141BJ  22314.80763784  .06593424  12197-4  43778-3 0  9999
2 54213  53.2080  73.2843 0016809 229.1244 130.8349 16.39897288  2236
SHIYAN 20C (SY-20C)     
1 54214U 22142A   22316.84993269 -.00000136  00000+0  00000+0 0  9990
2 54214  59.9979 314.2667 0009731 286.1282  73.8733 14.27343750  2126
CZ-2D R/B               
1 54215U 22142B   22316.45796972 -.00000139  00000+0  00000+0 0  9993
2 54215  59.9039 315.0192 0025582 211.0674 148.8873 14.33509088  2077
CSS (MENGTIAN)          
1 54216U 22143A   22315.58414352 -.00000343  00000+0  00000+0 0  9994
2 54216  41.4778  40.9636 0008735 258.2352 298.0713 15.59917951 87815
2022-145A               
1 54223U 22145A   22316.25177181 -.00000854  00000+0  00000+0 0  9992
2 54223  63.8302  92.4254 6983049 269.9222  13.9777  2.01436108   196
2022-145B               
1 54224U 22145B   22316.23532199 -.00000446  00000+0  00000+0 0  9992
2 54224  63.8761  92.2772 6975778 270.0680  16.4441  2.02019309   197
2022-146A               
1 54225U 22146A   22312.98448931 -.00000014  00000+0  32140-3 0  9997
2 54225  27.5571 318.6854 8081786 181.7165 185.0152  1.30874800    79
2022-146B               
1 54226U 22146B   22315.62498627  .00636021  00000+0  36918+1 0  9995
2 54226  27.5649 318.2301 8078163 182.5000 349.3148  1.31287691   102
2022-147A               
1 54227U 22147A   22316.59807582  .00003400  00000+0  33294-3 0  9994
2 54227  97.6520 319.1085 0011811 278.4830  81.5047 14.92889014  1172
2022-147B               
1 54228U 22147B   22315.99566015  .00014038  00000+0  13611-2 0  9990
2 54228  97.6499 318.5244 0013094 283.3927  76.5596 14.92726443  1084
ELECTRON R/B            
1 54229U 22147C   22316.59795173  .01627633  22518-5  13991-2 0  9994
2 54229  97.5477 319.7237 0214468 202.7018 156.5306 15.80766324  1234
2022-148A               
1 54230U 22148A   22309.66314447 -.00000524  00000+0  00000+0 0  9992
2 54230  28.3719 219.4031 7294106 179.4183 126.5572  2.28036035    05
2022-148B               
1 54231U 22148B   22315.99185427  .00081767 -62506-7  36459-2 0  9995
2 54231  28.4082 216.8389 7222964 182.7194 168.3692  2.39136019   168
CYGNUS NG-18            
1 54232U 22149A   22315.39284736  .00014043  00000+0  25399-3 0  9991
2 54232  51.6439 327.3552 0006927  60.3945  19.4853 15.49940881368011
JPSS-2                  
1 54234U 22150A   22316.49345643 -.00001281  00000+0 -53371-3 0  9995
2 54234  98.6975 252.8584 0023329 233.4163 126.4815 14.24360857   297
2022-151A               
1 54235U 22151A   22316.56725050  .00000036  00000+0  42403-4 0  9999
2 54235  98.8201 321.6223 0011458 262.8503  97.1367 14.13310875    87
2022-151B               
1 54236U 22151B   22316.63575455  .00000019  00000+0  30893-4 0  9991
2 54236  98.8226 321.7340 0028187 350.2734   9.7892 14.17949775    84
TIANZHOU-5              
1 54237U 22152A   22315.96363529  .00024522  00000+0  29874-3 0  9996
2 54237  41.4795  38.6538 0009622 270.4713 259.5972 15.59880122 87879
2022-152B               
1 54238U 22152B   22316.32427675 -.00002374  75159-5  00000+0 0  9992
2 54238  41.8524  36.3301 0164363 180.6579 232.6918 15.87400234    31
